OBJECT_NAME,OBJECT_ID,EPOCH,MEAN_MOTION,ECCENTRICITY,INCLINATION,RA_OF_ASC_NODE,ARG_OF_PERICENTER,MEAN_ANOMALY,EPHEMERIS_TYPE,CLASSIFICATION_TYPE,NORAD_CAT_ID,ELEMENT_SET_NO,REV_AT_EPOCH,BSTAR,MEAN_MOTION_DOT,MEAN_MOTION_DDOT
BEIDOU-2 M3 (C11),2012-018A,2026-06-11T19:39:29.450304,1.86229994,.00200445,55.7631,305.0567,274.3118,85.4422,0,U,38250,999,9584,0,-.67E-6,0
SES-5 (EGNOS/PRN 136),2012-036A,2026-06-12T03:41:38.611104,1.00270253,.00018624,0.0478,313.5561,131.8109,235.5100,0,U,38652,999,4440,0,.49E-6,0
GSAT-10 (GAGAN/PRN 128),2012-051B,2026-06-12T03:19:38.755200,1.00270988,.00077845,0.0504,263.7219,184.9482,304.7432,0,U,38779,999,5004,0,-.149E-5,0
GPS BIIF-3  (PRN 24),2012-053A,2026-06-11T08:00:08.402112,2.00567339,.0179946,53.5848,143.8391,65.6739,296.1889,0,U,38833,999,9932,0,.92E-6,0
GSAT0103 (GALILEO-FM3),2012-055A,2026-06-11T00:33:20.070144,1.70473353,.0004991,55.8029,101.7147,304.7651,55.1525,0,U,38857,999,8490,0,.14E-6,0
LUCH 5B (SDCM/PRN 125),2012-061A,2026-06-12T00:12:03.631968,1.00272976,.00022491,10.4700,49.9304,146.8599,50.2887,0,U,38977,999,4955,0,-.129E-5,0
GPS BIIF-4  (PRN 27),2013-023A,2026-06-12T04:44:12.073344,2.00563421,.01415625,54.5081,269.1770,51.0276,310.2429,0,U,39166,999,9578,0,-.26E-6,0
GPS BIIF-5  (PRN 30),2014-008A,2026-06-12T04:46:32.329056,2.00559413,.0084241,53.6538,149.5231,231.2032,128.0417,0,U,39533,999,8958,0,.91E-6,0
ASTRA 5B (EGNOS/PRN 123),2014-011B,2026-06-12T06:28:03.020160,1.00271321,.00018438,0.0502,327.9695,101.9409,311.1943,0,U,39617,999,4461,0,.152E-5,0
COSMOS 2492 (754),2014-012A,2026-06-09T08:39:27.110016,2.13103521,.00104861,65.3026,314.2024,325.9791,33.9512,0,U,39620,999,9507,0,-.33E-6,0
IRNSS-1B,2014-017A,2026-06-11T18:38:36.998304,1.00274648,.0022984,28.9310,240.4964,189.7011,164.6562,0,U,39635,999,4473,0,.129E-5,0
GPS BIIF-6  (PRN 06),2014-026A,2026-06-11T23:25:12.942336,2.00561273,.00382118,56.5010,331.7203,326.6427,33.1203,0,U,39741,999,8843,0,-.66E-6,0
COSMOS 2500 (755),2014-032A,2026-06-11T21:02:39.312960,2.13106089,.00071573,65.2360,313.8645,183.6705,176.3150,0,U,40001,999,9334,0,-.45E-6,0
GPS BIIF-7  (PRN 09),2014-045A,2026-06-12T01:37:15.702240,2.00557996,.0033078,55.3500,88.6689,118.3101,242.0091,0,U,40105,999,8597,0,-.23E-6,0
GSAT0201 (GALILEO 5),2014-050A,2026-06-10T22:46:42.297888,1.85519989,.16736333,48.8825,273.6924,179.1491,181.2193,0,U,40128,999,7820,0,-.52E-6,0
GSAT0202 (GALILEO 6),2014-050B,2026-06-09T14:06:18.101664,1.85520607,.16746766,48.9007,272.8335,179.8278,180.2807,0,U,40129,999,8034,0,-.52E-6,0
IRNSS-1C,2014-061A,2026-06-11T20:59:50.455392,1.00270171,.00227015,6.5049,89.0305,1.8136,207.3354,0,U,40269,999,4263,0,-.148E-5,0
GPS BIIF-8  (PRN 03),2014-068A,2026-06-11T22:30:34.882272,2.00575784,.00669415,56.9840,31.1570,70.3939,290.3843,0,U,40294,999,8510,0,-.62E-6,0
COSMOS 2501 (702K),2014-075A,2026-06-12T03:19:59.350368,2.13101448,.00225348,63.6160,190.5467,212.1869,147.7498,0,U,40315,999,8974,0,.122E-5,0
GPS BIIF-9  (PRN 26),2015-013A,2026-06-12T01:50:03.050880,2.00551644,.01093995,53.1683,204.3890,40.1067,320.7833,0,U,40534,999,8172,0,.97E-6,0
GSAT0203 (GALILEO 7),2015-017A,2026-06-11T08:19:41.682144,1.70476009,.00020918,56.7895,341.7548,278.1581,81.8319,0,U,40544,999,6910,0,-.66E-6,0
GSAT0204 (GALILEO 8),2015-017B,2026-06-11T14:28:00.634368,1.70475611,.00018922,56.7979,341.7663,248.9862,111.0068,0,U,40545,999,3215,0,-.67E-6,0
