BEIDOU-2 M3             
1 38250U 12018A   26162.81909086 -.00000067  00000+0  00000+0 0  9990
2 38250  55.7631 305.0567 0020044 274.3118  85.4422  1.86229994 95840
SES-5                   
1 38652U 12036A   26163.15391911  .00000049  00000+0  00000+0 0  9995
2 38652   0.0478 313.5561 0001862 131.8109 235.5100  1.00270253 44407
GSAT-10                 
1 38779U 12051B   26163.13864300 -.00000149  00000+0  00000+0 0  9999
2 38779   0.0504 263.7219 0007784 184.9482 304.7432  1.00270988 50044
NAVSTAR 67 (USA 239)    
1 38833U 12053A   26162.33343058  .00000092  00000+0  00000+0 0  9991
2 38833  53.5848 143.8391 0179946  65.6739 296.1889  2.00567339 99322
GSAT0103 (GALILEO-FM3)  
1 38857U 12055A   26162.02314896  .00000014  00000+0  00000+0 0  9997
2 38857  55.8029 101.7147 0004991 304.7651  55.1525  1.70473353 84909
LUCH-5B                 
1 38977U 12061A   26163.00837537 -.00000129  00000+0  00000+0 0  9996
2 38977  10.4700  49.9304 0002249 146.8599  50.2887  1.00272976 49553
NAVSTAR 68 (USA 242)    
1 39166U 13023A   26163.19736196 -.00000026  00000+0  00000+0 0  9991
2 39166  54.5081 269.1770 0141562  51.0276 310.2429  2.00563421 95785
NAVSTAR 69 (USA 248)    
1 39533U 14008A   26163.19898529  .00000091  00000+0  00000+0 0  9993
2 39533  53.6538 149.5231 0084241 231.2032 128.0417  2.00559413 89584
ASTRA 5B                
1 39617U 14011B   26163.26947940  .00000152  00000+0  00000+0 0  9998
2 39617   0.0502 327.9695 0001843 101.9409 311.1943  1.00271321 44610
COSMOS 2492 [GLONASS-M] 
1 39620U 14012A   26160.36073044 -.00000033  00000+0  00000+0 0  9995
2 39620  65.3026 314.2024 0010486 325.9791  33.9512  2.13103521 95077
IRNSS-1B                
1 39635U 14017A   26162.77681711  .00000129  00000+0  00000+0 0  9994
2 39635  28.9310 240.4964 0022984 189.7011 164.6562  1.00274648 44732
NAVSTAR 70 (USA 251)    
1 39741U 14026A   26162.97584424 -.00000066  00000+0  00000+0 0  9998
2 39741  56.5010 331.7203 0038211 326.6427  33.1203  2.00561273 88438
COSMOS 2500 [GLONASS-M] 
1 40001U 14032A   26162.87684390 -.00000045  00000+0  00000+0 0  9995
2 40001  65.2360 313.8645 0007157 183.6705 176.3150  2.13106089 93341
NAVSTAR 71 (USA 256)    
1 40105U 14045A   26163.06754285 -.00000023  00000+0  00000+0 0  9993
2 40105  55.3500  88.6689 0033078 118.3101 242.0091  2.00557996 85971
GSAT0201 (GALILEO 5)    
1 40128U 14050A   26161.94910067 -.00000052  00000+0  00000+0 0  9993
2 40128  48.8825 273.6924 1673633 179.1491 181.2193  1.85519989 78203
GSAT0202 (GALILEO 6)    
1 40129U 14050B   26160.58770951 -.00000052  00000+0  00000+0 0  9999
2 40129  48.9007 272.8335 1674676 179.8278 180.2807  1.85520607 80340
IRNSS-1C                
1 40269U 14061A   26162.87488953 -.00000148  00000+0  00000+0 0  9994
2 40269   6.5049  89.0305 0022701   1.8136 207.3354  1.00270171 42631
NAVSTAR 72 (USA 258)    
1 40294U 14068A   26162.93790373 -.00000062  00000+0  00000+0 0  9993
2 40294  56.9840  31.1570 0066941  70.3939 290.3843  2.00575784 85108
COSMOS 2501 [GLONASS-K] 
1 40315U 14075A   26163.13888137  .00000122  00000+0  00000+0 0  9990
2 40315  63.6160 190.5467 0022534 212.1869 147.7498  2.13101448 89746
NAVSTAR 73 (USA 260)    
1 40534U 15013A   26163.07642420  .00000097  00000+0  00000+0 0  9993
2 40534  53.1683 204.3890 0109399  40.1067 320.7833  2.00551644 81720
GSAT0203 (GALILEO 7)    
1 40544U 15017A   26162.34701021 -.00000066  00000+0  00000+0 0  9997
2 40544  56.7895 341.7548 0002091 278.1581  81.8319  1.70476009 69105
GSAT0204 (GALILEO 8)    
1 40545U 15017B   26162.60278512 -.00000067  00000+0  00000+0 0  9992
2 40545  56.7979 341.7663 0001892 248.9862 111.0068  1.70475611 32152
